{
  "type": "FeatureCollection",
  "features": [
    {
      "type": "Feature",
      "properties": {
        "norad_id": 66647,
        "name": "COSMOS 2597 (RODNIK-S 22)",
        "group": "last-30-days",
        "lat": 40.40835399581708,
        "lon": 91.60257793954057,
        "alt_km": 1497.5468526172963,
        "timestamp": "2025-12-26T06:43:28.232227+00:00",
        "meta_object_name": "COSMOS 2597 (RODNIK-S 22)",
        "meta_object_id": "2025-273A",
        "meta_epoch": "2025-12-25T22:14:37.268736",
        "meta_mean_motion": 12.41952275,
        "meta_eccentricity": 0.00075978,
        "meta_inclination": 82.4994,
        "meta_ra_of_asc_node": 278.261,
        "meta_arg_of_pericenter": 254.9333,
        "meta_mean_anomaly": 105.0905,
        "meta_ephemeris_type": 0,
        "meta_classification_type": "U",
        "meta_norad_cat_id": 66647,
        "meta_element_set_no": 999,
        "meta_rev_at_epoch": 377,
        "meta_bstar": 0.00017123203,
        "meta_mean_motion_dot": 3.3e-07,
        "meta_mean_motion_ddot": 0,
        "tle_line1": "1 66647U 25273A   25359.92682024  .00000033  00000+0  17123-3 0  9997",
        "tle_line2": "2 66647  82.4994 278.2610 0007597 254.9333 105.0905 12.41952275  3775"
      },
      "geometry": {
        "type": "Point",
        "coordinates": [
          91.60257793954057,
          40.40835399581708
        ]
      }
    },
    {
      "type": "Feature",
      "properties": {
        "norad_id": 66648,
        "name": "COSMOS 2598 (RODNIK-S 23)",
        "group": "last-30-days",
        "lat": -56.6278437012637,
        "lon": 109.55705552005308,
        "alt_km": 1494.4774208725503,
        "timestamp": "2025-12-26T06:43:28.232239+00:00",
        "meta_object_name": "COSMOS 2598 (RODNIK-S 23)",
        "meta_object_id": "2025-273B",
        "meta_epoch": "2025-12-25T21:43:34.837248",
        "meta_mean_motion": 12.4323365,
        "meta_eccentricity": 0.00082224,
        "meta_inclination": 82.5032,
        "meta_ra_of_asc_node": 278.2595,
        "meta_arg_of_pericenter": 205.4605,
        "meta_mean_anomaly": 154.6071,
        "meta_ephemeris_type": 0,
        "meta_classification_type": "U",
        "meta_norad_cat_id": 66648,
        "meta_element_set_no": 999,
        "meta_rev_at_epoch": 377,
        "meta_bstar": 0.00014904767,
        "meta_mean_motion_dot": 3.1e-07,
        "meta_mean_motion_ddot": 0,
        "tle_line1": "1 66648U 25273B   25359.90526432  .00000031  00000+0  14905-3 0  9999",
        "tle_line2": "2 66648  82.5032 278.2595 0008222 205.4605 154.6071 12.43233650  3776"
      },
      "geometry": {
        "type": "Point",
        "coordinates": [
          109.55705552005308,
          -56.6278437012637
        ]
      }
    },
    {
      "type": "Feature",
      "properties": {
        "norad_id": 66649,
        "name": "COSMOS 2599 (RODNIK-S 24)",
        "group": "last-30-days",
        "lat": 78.68660998267987,
        "lon": -40.777134147506565,
        "alt_km": 1499.1147482630076,
        "timestamp": "2025-12-26T06:43:28.232249+00:00",
        "meta_object_name": "COSMOS 2599 (RODNIK-S 24)",
        "meta_object_id": "2025-273C",
        "meta_epoch": "2025-12-25T22:32:52.864800",
        "meta_mean_motion": 12.41152363,
        "meta_eccentricity": 0.00063405,
        "meta_inclination": 82.505,
        "meta_ra_of_asc_node": 278.2892,
        "meta_arg_of_pericenter": 242.8979,
        "meta_mean_anomaly": 117.1453,
        "meta_ephemeris_type": 0,
        "meta_classification_type": "U",
        "meta_norad_cat_id": 66649,
        "meta_element_set_no": 999,
        "meta_rev_at_epoch": 377,
        "meta_bstar": 0.00027254967,
        "meta_mean_motion_dot": 4.7e-07,
        "meta_mean_motion_ddot": 0,
        "tle_line1": "1 66649U 25273C   25359.93950075  .00000047  00000+0  27255-3 0  9996",
        "tle_line2": "2 66649  82.5050 278.2892 0006340 242.8979 117.1453 12.41152363  3772"
      },
      "geometry": {
        "type": "Point",
        "coordinates": [
          -40.777134147506565,
          78.68660998267987
        ]
      }
    },
    {
      "type": "Feature",
      "properties": {
        "norad_id": 66650,
        "name": "BEE-1000",
        "group": "last-30-days",
        "lat": -59.25812445640544,
        "lon": 93.99968628243553,
        "alt_km": 593.6371285686209,
        "timestamp": "2025-12-26T06:43:28.232262+00:00",
        "meta_object_name": "BEE-1000",
        "meta_object_id": "2025-274A",
        "meta_epoch": "2025-12-25T18:22:56.172288",
        "meta_mean_motion": 14.91704578,
        "meta_eccentricity": 0.00111541,
        "meta_inclination": 97.7405,
        "meta_ra_of_asc_node": 286.7153,
        "meta_arg_of_pericenter": 203.6876,
        "meta_mean_anomaly": 156.3831,
        "meta_ephemeris_type": 0,
        "meta_classification_type": "U",
        "meta_norad_cat_id": 66650,
        "meta_element_set_no": 999,
        "meta_rev_at_epoch": 434,
        "meta_bstar": 0.00017801436,
        "meta_mean_motion_dot": 1.737e-05,
        "meta_mean_motion_ddot": 0,
        "tle_line1": "1 66650U 25274A   25359.76592792  .00001737  00000+0  17801-3 0  9991",
        "tle_line2": "2 66650  97.7405 286.7153 0011154 203.6876 156.3831 14.91704578  4347"
      },
      "geometry": {
        "type": "Point",
        "coordinates": [
          93.99968628243553,
          -59.25812445640544
        ]
      }
    },
    {
      "type": "Feature",
      "properties": {
        "norad_id": 66651,
        "name": "2025-274B",
        "group": "last-30-days",
        "lat": -71.3581770630371,
        "lon": 83.44736357557447,
        "alt_km": 594.5434392781626,
        "timestamp": "2025-12-26T06:43:28.232271+00:00",
        "meta_object_name": "2025-274B",
        "meta_object_id": "2025-274B",
        "meta_epoch": "2025-12-25T18:19:35.220576",
        "meta_mean_motion": 14.91892174,
        "meta_eccentricity": 0.00113461,
        "meta_inclination": 97.7401,
        "meta_ra_of_asc_node": 286.7168,
        "meta_arg_of_pericenter": 201.7982,
        "meta_mean_anomaly": 158.2756,
        "meta_ephemeris_type": 0,
        "meta_classification_type": "U",
        "meta_norad_cat_id": 66651,
        "meta_element_set_no": 999,
        "meta_rev_at_epoch": 434,
        "meta_bstar": 0.00042786053,
        "meta_mean_motion_dot": 4.275e-05,
        "meta_mean_motion_ddot": 0,
        "tle_line1": "1 66651U 25274B   25359.76360209  .00004275  00000+0  42786-3 0  9998",
        "tle_line2": "2 66651  97.7401 286.7168 0011346 201.7982 158.2756 14.91892174  4347"
      },
      "geometry": {
        "type": "Point",
        "coordinates": [
          83.44736357557447,
          -71.3581770630371
        ]
      }
    },
    {
      "type": "Feature",
      "properties": {
        "norad_id": 66652,
        "name": "2025-274C",
        "group": "last-30-days",
        "lat": -80.90213991323081,
        "lon": 49.084326869617804,
        "alt_km": 595.1249681696845,
        "timestamp": "2025-12-26T06:43:28.232293+00:00",
        "meta_object_name": "2025-274C",
        "meta_object_id": "2025-274C",
        "meta_epoch": "2025-12-25T18:16:20.419680",
        "meta_mean_motion": 14.91976974,
        "meta_eccentricity": 0.00108742,
        "meta_inclination": 97.7406,
        "meta_ra_of_asc_node": 286.7213,
        "meta_arg_of_pericenter": 208.6516,
        "meta_mean_anomaly": 151.4107,
        "meta_ephemeris_type": 0,
        "meta_classification_type": "U",
        "meta_norad_cat_id": 66652,
        "meta_element_set_no": 999,
        "meta_rev_at_epoch": 434,
        "meta_bstar": 0.00035574365,
        "meta_mean_motion_dot": 3.552e-05,
        "meta_mean_motion_ddot": 0,
        "tle_line1": "1 66652U 25274C   25359.76134745  .00003552  00000+0  35574-3 0  9997",
        "tle_line2": "2 66652  97.7406 286.7213 0010874 208.6516 151.4107 14.91976974  4344"
      },
      "geometry": {
        "type": "Point",
        "coordinates": [
          49.084326869617804,
          -80.90213991323081
        ]
      }
    },
    {
      "type": "Feature",
      "properties": {
        "norad_id": 66653,
        "name": "2025-274D",
        "group": "last-30-days",
        "lat": -81.07412334254616,
        "lon": 47.22980435939255,
        "alt_km": 595.2641063995916,
        "timestamp": "2025-12-26T06:43:28.232305+00:00",
        "meta_object_name": "2025-274D",
        "meta_object_id": "2025-274D",
        "meta_epoch": "2025-12-25T21:29:24.103968",
        "meta_mean_motion": 14.9196714,
        "meta_eccentricity": 0.00118716,
        "meta_inclination": 97.7405,
        "meta_ra_of_asc_node": 286.8526,
        "meta_arg_of_pericenter": 204.7959,
        "meta_mean_anomaly": 155.2691,
        "meta_ephemeris_type": 0,
        "meta_classification_type": "U",
        "meta_norad_cat_id": 66653,
        "meta_element_set_no": 999,
        "meta_rev_at_epoch": 436,
        "meta_bstar": 0.00025761605,
        "meta_mean_motion_dot": 2.556e-05,
        "meta_mean_motion_ddot": 0,
        "tle_line1": "1 66653U 25274D   25359.89541787  .00002556  00000+0  25762-3 0  9991",
        "tle_line2": "2 66653  97.7405 286.8526 0011871 204.7959 155.2691 14.91967140  4365"
      },
      "geometry": {
        "type": "Point",
        "coordinates": [
          47.22980435939255,
          -81.07412334254616
        ]
      }
    }
  ]
}